1 45544U 20025P   23330.05349002  .00009523  00000-0  65698-3 0  9991
2 45544  53.0535 253.4459 0001832  83.1741 276.9456 15.06420046198695
1 45544U 20025P   23330.78332142 -.00001256  00000-0 -65428-4 0  9997
2 45544  53.0538 250.1683 0001629  98.4199 261.6974 15.06387790199405
1 45544U 20025P   23330.78332142 -.00001256  00000-0 -65428-4 0  9997
2 45544  53.0538 250.1683 0001629  98.4199 261.6974 15.06387790198808
1 45544U 20025P   23331.04871161 -.00004014  00000-0 -25082-3 0  9992
2 45544  53.0554 248.9705 0001938 136.3435 223.7707 15.06380108199444
1 45544U 20025P   23331.04871161 -.00004014  00000-0 -25082-3 0  9992
2 45544  53.0554 248.9705 0001938 136.3435 223.7707 15.06380108198847
1 45544U 20025P   23331.91121698 -.00000025  00000-0  17232-4 0  9997
2 45544  53.0554 245.1025 0001574  59.4859 300.6285 15.06397778199570
1 45544U 20025P   23332.04391028  .00002784  00000-0  20571-3 0  9990
2 45544  53.0552 244.5121 0001983  77.0463 283.0747 15.06402586199592
1 45544U 20025P   23332.04391028  .00002784  00000-0  20571-3 0  9990
2 45544  53.0552 244.5121 0001983  77.0463 283.0747 15.06402586198995
1 45544U 20025P   23332.77373240  .00003927  00000-0  28245-3 0  9992
2 45544  53.0543 241.2251 0001518 119.7736 240.3404 15.06394989199707
1 45544U 20025P   23332.77373240  .00003927  00000-0  28245-3 0  9992
2 45544  53.0543 241.2251 0001518 119.7736 240.3404 15.06394989199101
1 45544U 20025P   23332.97277569  .00004275  00000-0  30577-3 0  9999
2 45544  53.0537 240.3355 0001652 110.3161 249.8006 15.06392642199732
1 45544U 20025P   23334.10064854  .00007260  00000-0  50541-3 0  9997
2 45544  53.0536 235.2729 0001565  84.0353 276.0814 15.06429444199305
1 45544U 20025P   23335.09586348 -.00006036  00000-0 -38679-3 0  9993
2 45544  53.0521 230.8096 0001085 107.9240 252.1867 15.06387882199452
1 45544U 20025P   23335.89202727  .00006101  00000-0  42810-3 0  9990
2 45544  53.0519 227.2366 0001032 102.6441 257.4664 15.06403251200170
1 45544U 20025P   23336.02472315  .00019894  00000-0  13502-2 0  9996
2 45544  53.0521 226.6424 0001138  86.0320 274.0799 15.06413016200195
1 45544U 20025P   23336.02472315  .00019894  00000-0  13502-2 0  9996
2 45544  53.0521 226.6424 0001138  86.0320 274.0799 15.06413016199596
1 45544U 20025P   23336.95358712  .00012239  00000-0  83931-3 0  9992
2 45544  53.0521 222.4724 0001199 132.1829 227.9262 15.06390956200331
1 45544U 20025P   23336.95358712  .00012239  00000-0  83931-3 0  9992
2 45544  53.0521 222.4724 0001199 132.1829 227.9262 15.06390956199732
1 45544U 20025P   23337.81610719  .00005647  00000-0  39780-3 0  9994
2 45544  53.0520 218.6019 0001128  70.8887 289.2224 15.06388451199869
1 45544U 20025P   23337.94880022  .00004873  00000-0  34590-3 0  9998
2 45544  53.0529 218.0053 0001257  95.1812 264.9321 15.06390392200487
1 45544U 20025P   23339.07669077  .00005987  00000-0  42041-3 0  9996
2 45544  53.0528 212.9401 0001188 105.2148 254.8973 15.06408236200651
1 45544U 20025P   23339.07669077  .00005987  00000-0  42041-3 0  9996
2 45544  53.0528 212.9401 0001188 105.2148 254.8973 15.06408236200055
1 45544U 20025P   23340.93438963  .00001286  00000-0  10520-3 0  9996
2 45544  53.0527 204.6006 0001136 101.2406 258.8711 15.06409666200938
1 45544U 20025P   23340.93438963  .00001286  00000-0  10520-3 0  9996
2 45544  53.0527 204.6006 0001136 101.2406 258.8711 15.06409666200332
1 45544U 20025P   23341.99594362 -.00001742  00000-0 -98141-4 0  9994
2 45544  53.0527 199.8357 0001131  98.9348 261.1769 15.06392364201098
1 45544U 20025P   23341.99594362 -.00001742  00000-0 -98141-4 0  9994
2 45544  53.0527 199.8357 0001131  98.9348 261.1769 15.06392364200491
1 45544U 20025P   23343.98634909  .00001561  00000-0  12369-3 0  9991
2 45544  53.0486 190.9021 0001179  78.3814 281.7307 15.06400982201399
1 45544U 20025P   23343.98634909  .00001561  00000-0  12369-3 0  9991
2 45544  53.0486 190.9021 0001179  78.3814 281.7307 15.06400982200792
1 45544U 20025P   23344.84885575  .00000431  00000-0  47816-4 0  9995
2 45544  53.0531 187.0228 0001413 105.6733 254.4412 15.06401455201526
1 45544U 20025P   23345.77770790  .00000915  00000-0  80320-4 0  9994
2 45544  53.0527 182.8548 0001376  95.2852 264.8294 15.06403166201662
1 45544U 20025P   23345.77770790  .00000915  00000-0  80320-4 0  9994
2 45544  53.0527 182.8548 0001376  95.2852 264.8294 15.06403166201066
1 45544U 20025P   23346.83925989  .00000126  00000-0  27365-4 0  9998
2 45544  53.0527 178.0910 0001354  98.2029 261.9114 15.06398958201826
1 45544U 20025P   23346.83925989  .00000126  00000-0  27365-4 0  9998
2 45544  53.0527 178.0910 0001354  98.2029 261.9114 15.06398958201220
1 45544U 20025P   23347.83445843  .00000568  00000-0  57016-4 0  9991
2 45544  53.0526 173.6229 0001328  92.4612 267.6529 15.06401742201979
1 45544U 20025P   23348.82967231 -.00000535  00000-0 -17001-4 0  9997
2 45544  53.0528 169.1589 0001286  94.6573 265.4563 15.06390503202127
1 45544U 20025P   23348.82967231 -.00000535  00000-0 -17001-4 0  9997
2 45544  53.0528 169.1589 0001286  94.6573 265.4563 15.06390503201520
1 45544U 20025P   23349.75853122 -.00000214  00000-0  45595-5 0  9996
2 45544  53.0534 164.9899 0001412  80.5704 279.5444 15.06391297202262
1 45544U 20025P   23350.75373019  .00001718  00000-0  13423-3 0  9992
2 45544  53.0535 160.5194 0001309  87.9953 272.1186 15.06396418202414
1 45544U 20025P   23350.75373019  .00001718  00000-0  13423-3 0  9992
2 45544  53.0535 160.5194 0001309  87.9953 272.1186 15.06396418201817
1 45544U 20025P   23351.61623435  .00001673  00000-0  13116-3 0  9997
2 45544  53.0538 156.6420 0001302  90.8354 269.2785 15.06403831202540
1 45544U 20025P   23351.74892631  .00002057  00000-0  15690-3 0  9993
2 45544  53.0536 156.0480 0001349  84.9604 275.1539 15.06406283202560
1 45544U 20025P   23351.74892631  .00002057  00000-0  15690-3 0  9993
2 45544  53.0536 156.0480 0001349  84.9604 275.1539 15.06406283201963
1 45544U 20025P   23352.61143913  .00000528  00000-0  54353-4 0  9993
2 45544  53.0540 152.1780 0001411  94.1230 265.9920 15.06401453202692
1 45544U 20025P   23352.67778587  .00000425  00000-0  47421-4 0  9994
2 45544  53.0543 151.8803 0001419  96.5538 263.5613 15.06401154202109
1 45544U 20025P   23353.60663024 -.00000108  00000-0  11616-4 0  9993
2 45544  53.0551 147.7112 0001442 105.9040 254.2108 15.06414511202842
1 45544U 20025P   23353.73932667  .00004770  00000-0  33898-3 0  9992
2 45544  53.0545 147.1130 0001521  99.4278 260.6883 15.06394948202861
1 45544U 20025P   23353.73932667  .00004770  00000-0  33898-3 0  9992
2 45544  53.0545 147.1130 0001521  99.4278 260.6883 15.06394948202265
1 45544U 20025P   23354.73453694 -.00000461  00000-0 -12095-4 0  9993
2 45544  53.0541 142.6450 0001172  94.4122 265.7001 15.06396730203014
1 45544U 20025P   23354.73453694 -.00000461  00000-0 -12095-4 0  9993
2 45544  53.0541 142.6450 0001172  94.4122 265.7001 15.06396730202417
1 45544U 20025P   23355.59703838 -.00001976  00000-0 -11376-3 0  9998
2 45544  53.0540 138.7729 0001233 112.1050 248.0070 15.06412102203140
1 45544U 20025P   23355.66338563 -.00001326  00000-0 -70096-4 0  9999
2 45544  53.0543 138.4754 0001192  85.0317 275.0808 15.06411004203156
1 45544U 20025P   23356.59225046  .00001032  00000-0  88191-4 0  9990
2 45544  53.0531 134.3054 0001161  96.3280 263.7841 15.06392737203298
1 45544U 20025P   23356.65859732  .00001115  00000-0  93771-4 0  9994
2 45544  53.0541 134.0079 0001157  95.6300 264.4821 15.06393471203307
1 45544U 20025P   23356.65859732  .00001115  00000-0  93771-4 0  9994
2 45544  53.0541 134.0079 0001157  95.6300 264.4821 15.06393471202700
1 45544U 20025P   23357.58744687  .00001905  00000-0  14676-3 0  9992
2 45544  53.0543 129.8384 0001220  81.5616 278.5511 15.06403251203440
1 45544U 20025P   23357.58744687  .00001905  00000-0  14676-3 0  9992
2 45544  53.0543 129.8384 0001220  81.5616 278.5511 15.06403251202843
1 45544U 20025P   23358.51630989  .00000753  00000-0  69418-4 0  9990
2 45544  53.0548 125.6676 0001235  83.2601 276.8528 15.06395704202982
1 45544U 20025P   23358.58265656  .00000704  00000-0  66163-4 0  9992
2 45544  53.0547 125.3701 0001229  82.4486 277.6642 15.06395743203599
1 45544U 20025P   23358.64900346  .00000652  00000-0  62692-4 0  9996
2 45544  53.0548 125.0724 0001240  79.0157 281.0972 15.06395880203601
1 45544U 20025P   23359.51150235  .00001813  00000-0  14058-3 0  9999
2 45544  53.0549 121.2008 0001279  71.5131 288.5997 15.06406997203135
1 45544U 20025P   23359.57784725  .00002079  00000-0  15838-3 0  9994
2 45544  53.0546 120.9032 0001266  74.2030 285.9099 15.06408869203740
1 45544U 20025P   23360.50671558 -.00000416  00000-0 -90070-5 0  9996
2 45544  53.0529 116.7322 0001385  95.1199 264.9948 15.06391335203284
1 45544U 20025P   23360.57306795  .00000365  00000-0  43436-4 0  9995
2 45544  53.0537 116.4353 0001343  94.2829 265.8314 15.06389403203895
1 45544U 20025P   23360.63941724  .00000090  00000-0  24963-4 0  9998
2 45544  53.0540 116.1381 0001339  85.4144 274.6998 15.06388065203905
1 45544U 20025P   23360.63941724  .00000090  00000-0  24963-4 0  9998
2 45544  53.0540 116.1381 0001339  85.4144 274.6998 15.06388065203309
1 45544U 20025P   23361.50191519  .00000062  00000-0  23055-4 0  9994
2 45544  53.0542 112.2654 0001275  91.1809 268.9326 15.06405083203437
1 45544U 20025P   23361.56826097  .00000299  00000-0  38988-4 0  9999
2 45544  53.0541 111.9676 0001290  90.5645 269.5491 15.06406426204044
1 45544U 20025P   23361.70094970  .00000836  00000-0  74963-4 0  9992
2 45544  53.0536 111.3724 0001246 105.5181 254.5946 15.06411391204067
1 45544U 20025P   23361.70094970  .00000836  00000-0  74963-4 0  9992
2 45544  53.0536 111.3724 0001246 105.5181 254.5946 15.06411391203460
1 45544U 20025P   23362.49713061  .00000879  00000-0  77933-4 0  9995
2 45544  53.0536 107.7983 0001490 105.8889 254.2264 15.06387337203580
1 45544U 20025P   23362.56347695  .00000672  00000-0  64038-4 0  9992
2 45544  53.0538 107.5002 0001380 117.4871 242.6259 15.06387306204199
